{
  "norad_id": 64168,
  "name": "STARLINK-34303",
  "history": [
    {
      "epoch": "2026-03-28T16:57:16.496352Z",
      "apogee_km": 549.9180529979667,
      "perigee_km": 549.06456919004,
      "latitude_deg": -9.01244851734103e-06,
      "longitude_deg": 59.89103059151747,
      "height_km": 552.8284486436854,
      "semi_major_axis_km": 6927.628311094003,
      "eccentricity": 6.16e-05,
      "inclination_deg": 97.6019,
      "raan_deg": 140.3328,
      "arg_perigee_deg": 129.7024,
      "mean_anomaly_deg": 230.4257,
      "mean_motion_rev_day": 15.05656469
    },
    {
      "epoch": "2026-03-29T02:31:28.468704Z",
      "apogee_km": 549.9998654947667,
      "perigee_km": 548.9884313470975,
      "latitude_deg": 5.745900385071498e-05,
      "longitude_deg": -83.65908871162921,
      "height_km": 552.9309335726475,
      "semi_major_axis_km": 6927.631148420932,
      "eccentricity": 7.3e-05,
      "inclination_deg": 97.6022,
      "raan_deg": 140.7256,
      "arg_perigee_deg": 137.4037,
      "mean_anomaly_deg": 222.7247,
      "mean_motion_rev_day": 15.05655544
    },
    {
      "epoch": "2026-03-30T02:26:58.362432Z",
      "apogee_km": 549.9496567839869,
      "perigee_km": 549.042136874501,
      "latitude_deg": -6.868284312501489e-05,
      "longitude_deg": -82.53379221932437,
      "height_km": 552.92871699453,
      "semi_major_axis_km": 6927.632896829244,
      "eccentricity": 6.55e-05,
      "inclination_deg": 97.602,
      "raan_deg": 141.708,
      "arg_perigee_deg": 144.2201,
      "mean_anomaly_deg": 215.9069,
      "mean_motion_rev_day": 15.05654974
    },
    {
      "epoch": "2026-03-30T13:36:52.328448Z",
      "apogee_km": 549.9483183074508,
      "perigee_km": 549.0197399847038,
      "latitude_deg": 9.568522605825521e-06,
      "longitude_deg": 109.99050966259023,
      "height_km": 552.973458931966,
      "semi_major_axis_km": 6927.6210291460775,
      "eccentricity": 6.702e-05,
      "inclination_deg": 97.6022,
      "raan_deg": 142.1657,
      "arg_perigee_deg": 156.1247,
      "mean_anomaly_deg": 204.0011,
      "mean_motion_rev_day": 15.05658843
    },
    {
      "epoch": "2026-03-30T21:35:22.634592Z",
      "apogee_km": 550.0630993008144,
      "perigee_km": 548.9410988723275,
      "latitude_deg": -1.4069486238075654e-05,
      "longitude_deg": -9.634387520163108,
      "height_km": 552.8762036069818,
      "semi_major_axis_km": 6927.639099086571,
      "eccentricity": 8.098e-05,
      "inclination_deg": 97.6025,
      "raan_deg": 142.4946,
      "arg_perigee_deg": 123.5319,
      "mean_anomaly_deg": 236.5985,
      "mean_motion_rev_day": 15.05652952
    },
    {
      "epoch": "2026-03-31T13:32:22.658496Z",
      "apogee_km": 549.8672557684649,
      "perigee_km": 549.1273844230782,
      "latitude_deg": 1.0653994514787367e-05,
      "longitude_deg": 111.11516700949338,
      "height_km": 552.8465827363405,
      "semi_major_axis_km": 6927.634320095771,
      "eccentricity": 5.34e-05,
      "inclination_deg": 97.6016,
      "raan_deg": 143.1493,
      "arg_perigee_deg": 140.2732,
      "mean_anomaly_deg": 219.8534,
      "mean_motion_rev_day": 15.0565451
    },
    {
      "epoch": "2026-04-01T10:16:28.743744Z",
      "apogee_km": 549.9462834563228,
      "perigee_km": 549.0581601080903,
      "latitude_deg": 3.607722489092797e-05,
      "longitude_deg": 160.08975241076502,
      "height_km": 552.9231989603118,
      "semi_major_axis_km": 6927.639221782207,
      "eccentricity": 6.41e-05,
      "inclination_deg": 97.6022,
      "raan_deg": 144.0008,
      "arg_perigee_deg": 143.3573,
      "mean_anomaly_deg": 216.7698,
      "mean_motion_rev_day": 15.05652912
    },
    {
      "epoch": "2026-04-02T10:11:58.347168Z",
      "apogee_km": 549.9648745518452,
      "perigee_km": 548.9678538756671,
      "latitude_deg": -1.2039466558998808e-05,
      "longitude_deg": 161.21635188764517,
      "height_km": 552.8950344751819,
      "semi_major_axis_km": 6927.603364213755,
      "eccentricity": 7.196e-05,
      "inclination_deg": 97.6028,
      "raan_deg": 144.9833,
      "arg_perigee_deg": 136.9276,
      "mean_anomaly_deg": 223.2007,
      "mean_motion_rev_day": 15.05664602
    }
  ]
}